SL-16 R/B               
1 19120U 88039B   16359.21860005 -.00000168  00000-0 -56983-4 0  9999
2 19120  71.0151 334.6174 0019482  97.3948 262.9392 14.19162844481569
COSMOS 1953             
1 19210U 88050A   16358.65606589  .00001080  00000-0  73792-4 0  9993
2 19210  82.5165 203.5407 0014188 134.4014 225.8377 15.05085115551435
SL-8 R/B                
1 19257U 88053B   16357.92385241 -.00000070  00000-0 -14650-4 0  9993
2 19257  74.0461 180.5774 0019531 116.5331 348.4995 14.37341734493161
COSMOS 1975             
1 19573U 88093A   16358.50506130  .00000562  00000-0  38568-4 0  9993
2 19573  82.5193 155.4311 0014667 171.0685 189.0805 15.03988206533405
SL-14 R/B               
1 19574U 88093B   16359.21881132  .00000108  00000-0  10243-4 0  9997
2 19574  82.5325 308.6391 0021058 337.4800 156.1146 14.83195338523519
SL-16 R/B               
1 19650U 88102B   16358.50234383 -.00000250  00000-0 -10270-3 0  9993
2 19650  70.9983  24.5127 0011846  90.6103 269.6378 14.15749726451129
INTERCOSMOS 24          
1 20261U 89080A   16359.47047855 -.00000002  00000-0 -96489-5 0  9995
2 20261  82.5943 123.1438 1204735 139.6367 230.0766 12.55853148244032
SL-14 R/B               
1 20262U 89080C   16359.53117631  .00000059  00000-0  17429-4 0  9999
2 20262  82.5925 167.9594 1236508 294.7711  52.9729 12.48839977239918
DELTA 1 R/B             
1 20323U 89089B   16359.52085536  .00000077  00000-0  29351-4 0  9990
2 20323  97.0854 327.1706 0070330 270.0152  89.2985 14.48168328429440
DELTA 2 R/B(1)          
1 20453U 90008B   16359.53308119  .00002315  00000-0  13574-3 0  9999
2 20453  35.6235 176.0283 0290851 156.3216 205.1187 14.82625638422261
COSMOS 2058             
1 20465U 90010A   16359.27937811  .00000317  00000-0  24894-4 0  9991
2 20465  82.4902  56.0178 0016263 158.7433 201.4469 14.97390986459167
SL-14 R/B               
1 20466U 90010B   16359.55153044  .00000124  00000-0  12797-4 0  9996
2 20466  82.5019 176.0023 0020289 188.0752 172.0139 14.81258741451640
SL-14 R/B               
1 20511U 90018B   16359.39717647  .00000092  00000-0  91443-5 0  9992
2 20511  82.5237 116.8867 0016671 330.6992  86.8265 14.79918351446218
HST                     
1 20580U 90037B   16359.52994213  .00000625  00000-0  27742-4 0  9992
2 20580  28.4704  81.4942 0002985  93.3235  95.0487 15.08628092263880
SL-16 R/B               
1 20625U 90046B   16359.47919443  .00000308  00000-0  18485-3 0  9999
2 20625  70.9978 155.8118 0013939   4.3841 355.7400 14.14609636373132
COSMOS 2084             
1 20663U 90055A   16359.51032638  .00000078  00000-0  24614-4 0  9994
2 20663  62.7930  91.0716 0137021  72.8703 288.7343 14.91438591433753
SL-6 R/B(2)             
1 20666U 90055D   16359.21152206  .00000069  00000-0  23685-4 0  9995
2 20666  62.7843  11.3312 0136557  91.9698 269.7041 14.91798789435073
SL-8 R/B                
1 20775U 90078B   16358.56287061  .00003954  00000-0  19710-3 0  9995
2 20775  82.9283 192.0413 0592608 162.7567 199.4748 14.29815279323669
SL-8 R/B                
1 21088U 91006B   16359.53072315 -.00000043  00000-0 -58881-4 0  9998
2 21088  82.9418 150.0767 0023719  89.6003 335.8406 13.77036696301569
OKEAN-3                 
1 21397U 91039A   16359.40163745  .00000308  00000-0  27483-4 0  9997
2 21397  82.5225 304.4150 0019593 100.7016 259.6412 14.92382408383719
COSMOS 2151             
1 21422U 91042A   16359.26708159  .00000292  00000-0  26355-4 0  9997
2 21422  82.5009  52.9011 0015061 153.2990 206.9008 14.91752070382427
SL-14 R/B               
1 21423U 91042B   16358.84841777  .00000108  00000-0  11197-4 0  9999
2 21423  82.4942 125.2715 0019126 103.8807 256.4535 14.79671316376654
ERS-1                   
1 21574U 91050A   16358.86789575  .00000064  00000-0  35399-4 0  9995
2 21574  98.4389 303.0187 0033988 117.6460 242.8183 14.37546800332408
ARIANE 40 R/B           
1 21610U 91050F   16358.76237054  .00000005  00000-0  15694-4 0  9996
2 21610  98.6315  48.0180 0004279 105.4839   3.5836 14.40776749334854
INTERCOSMOS 25          
1 21819U 91086A   16359.51780844  .00000499  00000-0  88970-4 0  9994
2 21819  82.5516 168.0904 1526224  98.5762 279.0605 12.04409431 91251
SL-14 R/B               
1 21820U 91086B   16359.02714325  .00000147  00000-0  30033-4 0  9990
2 21820  82.5613 221.7887 1576754 280.8780  61.9372 11.93249105 85896
SL-8 R/B                
1 21876U 92008B   16357.80251969  .00000009  00000-0 -70025-5 0  9994
2 21876  82.9275 248.2876 0034941 164.5663 258.3532 13.75597573247135
SL-8 R/B                
1 21938U 92020B   16359.52084881  .00000090  00000-0  78501-4 0  9990
2 21938  82.9301 130.1460 0028237 321.2470 108.5867 13.75257800239281
SL-16 R/B               
1 22220U 92076B   16358.63776061  .00000143  00000-0  96063-4 0  9997
2 22220  71.0009  68.7715 0013150 190.6740 331.8432 14.16407117245915
SL-16 R/B               
1 22285U 92093B   16358.07024038 -.00000172  00000-0 -64317-4 0  9996
2 22285  71.0212 221.7286 0003551   0.1234 359.9889 14.15007273237627
COSMOS 2228             
1 22286U 92094A   16358.62695267  .00000261  00000-0  25915-4 0  9995
2 22286  82.5200 179.6126 0020280 348.4166  11.6581 14.87582233296399
SL-16 R/B               
1 22566U 93016B   16359.23609573 -.00000032  00000-0  79368-5 0  9993
2 22566  71.0093  74.1582 0009093  27.0667 333.0928 14.14945449226529
COSMOS 2242             
1 22626U 93024A   16359.52029702  .00000272  00000-0  27175-4 0  9994
2 22626  82.5212 206.4686 0018750 345.0656  15.0005 14.87583965280188
SL-16 R/B               
1 22803U 93059B   16358.84447073  .00000170  00000-0  10861-3 0  9998
2 22803  70.9905 258.9198 0019387 289.9385  69.9650 14.16758856203440
ARIANE 40 R/B           
1 22830U 93061H   16358.50058745 -.00000071  00000-0 -94462-5 0  9991
2 22830  98.8885   3.8436 0011871  81.6068  71.5604 14.31413797213115
COSMOS 2278             
1 23087U 94023A   16359.22449369 -.00000151  00000-0 -54936-4 0  9991
2 23087  71.0522   4.6540 0007108 134.3436 225.8270 14.13726990169765
SL-16 R/B               
1 23088U 94023B   16359.19571609  .00000086  00000-0  69351-4 0  9993
2 23088  71.0014 289.3337 0003925 329.2667  30.8225 14.14653232170790
SL-16 R/B               
1 23343U 94074B   16358.71835662 -.00000007  00000-0  66438-5 0  9990
2 23343  98.1753  27.8428 0005619 277.0101 198.4545 14.76683808190939
SL-16 R/B               
1 23405U 94077B   16359.05495567 -.00000285  00000-0 -12204-3 0  9995
2 23405  70.9819 223.6113 0004733 247.6835 112.3786 14.15188306140730
ERS-2                   
1 23560U 95021A   16358.50611373  .00001611  00000-0  78709-4 0  9996
2 23560  98.5371 321.5138 0003848 162.3670 197.7696 15.20044279148699
ARIANE 40+ R/B          
1 23561U 95021B   16359.53720336  .00000050  00000-0  32089-4 0  9998
2 23561  98.7851 350.7767 0007867  59.9788  48.7801 14.37786537136151
SL-16 R/B               
1 23705U 95058B   16358.50925792  .00000281  00000-0  16928-3 0  9996
2 23705  71.0225  37.6159 0013734 214.2951 145.7286 14.15094598 92335
SL-16 R/B               
1 24298U 96051B   16358.66515185  .00000088  00000-0  73760-4 0  9999
2 24298  70.8470  71.9988 0012606  88.0805 272.1759 14.12465814 47032
ORBVIEW 2 (SEASTAR)     
1 24883U 97037A   16359.32509094  .00000036  00000-0  29022-4 0  9995
2 24883  98.5326 104.4287 0001300 254.1797 105.9244 14.33361834 26857
SL-16 R/B               
1 25400U 98043G   16359.49791924 -.00000001  00000-0  17559-4 0  9997
2 25400  98.4660 307.5156 0011016  87.0824 273.1617 14.25399675960183
SL-16 R/B               
1 25407U 98045B   16359.21019869 -.00000264  00000-0 -11022-3 0  9997
2 25407  71.0119  49.1400 0005621 123.6857 236.4803 14.15755487951416
ISS (ZARYA)             
1 25544U 98067A   16359.59059303  .00002116  00000-0  39499-4 0  9996
2 25544  51.6431 188.6717 0006490  10.6256  30.5571 15.53932013 34605
SL-8 R/B                
1 25723U 99022C   16359.47856501  .00007024  00000-0  12293-3 0  9994
2 25723  48.4183  17.2134 0011455 276.5386  83.4254 15.51618195979340
CZ-4B R/B               
1 25732U 99025C   16358.44918237 -.00000023  00000-0  11395-4 0  9994
2 25732  98.9849 352.1268 0036609 230.6249 255.2184 14.17622819911734
OKEAN-O                 
1 25860U 99039A   16358.81958826  .00000091  00000-0  20647-4 0  9994
2 25860  98.1673 335.4960 0001277  64.1465 295.9876 14.76435017937957
SL-16 R/B               
1 25861U 99039B   16358.86943034  .00000058  00000-0  15305-4 0  9993
2 25861  98.0810 323.2559 0014422 288.0217 101.5148 14.78373603939878
TERRA                   
1 25994U 99068A   16359.23497161  .00000033  00000-0  17410-4 0  9991
2 25994  98.2047  70.7756 0000742  75.6489 284.4808 14.57116413905196
SL-14 R/B               
1 26874U 01032B   16358.87762514  .00054387 -67625-7  14339-3 0  9990
2 26874  82.4560  72.2948 0005004 181.6336 178.4923 15.94572218865729
ENVISAT                 
1 27386U 02009A   16359.51493761  .00000413  00000-0  15077-3 0  9998
2 27386  98.2575  45.8559 0001257  93.9472 266.1861 14.37886254775972
IDEFIX & ARIANE 42P R/B 
1 27422U 02021B   16359.49212497 -.00000040  00000-0  24394-6 0  9997
2 27422  98.2274   3.4605 0013053  38.6676 321.5439 14.29252910761722
AQUA                    
1 27424U 02022A   16359.56196411  .00000142  00000-0  41681-4 0  9993
2 27424  98.2198 297.3193 0000809  32.0204 142.2798 14.57107517778845
CZ-4B R/B               
1 27432U 02024C   16358.89970939 -.00000001  00000-0  23055-4 0  9994
2 27432  98.9640 325.6915 0050638 167.3797 246.1767 14.14032349754021
MIDORI II (ADEOS-II)    
1 27597U 02056A   16359.35323163  .00000074  00000-0  46997-4 0  9993
2 27597  98.3462 330.5710 0002008 103.8926 256.2479 14.27256813730488
H-2A R/B                
1 27601U 02056E   16359.27123600  .00000044  00000-0  30977-4 0  9992
2 27601  98.3997  66.9258 0073346  94.0676 312.4326 14.31754655732783
